[{"OBJECT_NAME":"TIANMU-1 19","OBJECT_ID":"2023-208A","EPOCH":"2026-03-09T22:13:36.801696","MEAN_MOTION":15.2984143,"ECCENTRICITY":0.00039292,"INCLINATION":97.4383,"RA_OF_ASC_NODE":184.9132,"ARG_OF_PERICENTER":316.2611,"MEAN_ANOMALY":43.8317,"EPHEMERIS_TYPE":0,"CLASSIFICATION_TYPE":"U","NORAD_CAT_ID":58660,"ELEMENT_SET_NO":999,"REV_AT_EPOCH":12214,"BSTAR":0.00040995676,"MEAN_MOTION_DOT":0.00011779,"MEAN_MOTION_DDOT":0},{"OBJECT_NAME":"STARLINK-31917","OBJECT_ID":"2024-084R","EPOCH":"2026-03-09T22:56:13.750944","MEAN_MOTION":15.27589228,"ECCENTRICITY":0.0001287,"INCLINATION":42.9983,"RA_OF_ASC_NODE":40.3033,"ARG_OF_PERICENTER":280.0245,"MEAN_ANOMALY":80.0461,"EPHEMERIS_TYPE":0,"CLASSIFICATION_TYPE":"U","NORAD_CAT_ID":59669,"ELEMENT_SET_NO":999,"REV_AT_EPOCH":10441,"BSTAR":0.0001271893,"MEAN_MOTION_DOT":3.24e-5,"MEAN_MOTION_DDOT":0}]
